[{"name": "BEIDOU-2 IGSO-1 (C06)", "line1": "1 36828U 10036A   26162.96577620 -.00000029  00000+0  00000+0 0  9996", "line2": "2 36828  54.3019 163.0075 0059190 225.0550 327.5844  1.00273454 58042"}, {"name": "BEIDOU-2 G4 (C04)", "line1": "1 37210U 10057A   26163.65298333 -.00000100  00000+0  00000+0 0  9993", "line2": "2 37210   3.6342  68.9757 0005119 197.7214  29.3695  1.00271259 57241"}, {"name": "BEIDOU-2 IGSO-2 (C07)", "line1": "1 37256U 10068A   26162.63123517 -.00000226  00000+0  00000+0 0  9992", "line2": "2 37256  47.5583 271.9034 0055444 212.3317 110.6962  1.00285295 56732"}, {"name": "BEIDOU-2 IGSO-3 (C08)", "line1": "1 37384U 11013A   26161.71639865 -.00000195  00000+0  00000+0 0  9996", "line2": "2 37384  62.3981  40.2143 0034353 184.2630  40.3873  1.00268972 55596"}, {"name": "BEIDOU-2 IGSO-4 (C09)", "line1": "1 37763U 11038A   26162.98219539  .00000090  00000+0  00000+0 0  9999", "line2": "2 37763  54.5997 165.7200 0159351 231.3459 310.0324  1.00285652 54594"}, {"name": "BEIDOU-2 IGSO-5 (C10)", "line1": "1 37948U 11073A   26163.78189384 -.00000165  00000+0  00000+0 0  9990", "line2": "2 37948  47.6870 271.6014 0113781 221.6023 141.1385  1.00273641 53097"}, {"name": "BEIDOU-2 G5 (C05)", "line1": "1 38091U 12008A   26163.77541382  .00000069  00000+0  00000+0 0  9990", "line2": "2 38091   3.5613  69.7267 0009173 273.8773 255.3040  1.00270766 52325"}, {"name": "BEIDOU-2 M3 (C11)", "line1": "1 38250U 12018A   26162.81909086 -.00000067  00000+0  00000+0 0  9990", "line2": "2 38250  55.7631 305.0567 0020044 274.3118  85.4422  1.86229994 95840"}, {"name": "BEIDOU-2 M4 (C12)", "line1": "1 38251U 12018B   26163.28833892 -.00000068  00000+0  00000+0 0  9995", "line2": "2 38251  55.6629 304.2553 0011272 276.3226  83.5311  1.86229638 95850"}, {"name": "BEIDOU-2 M6 (C14)", "line1": "1 38775U 12050B   26162.99810608 -.00000055  00000+0  00000+0 0  9995", "line2": "2 38775  56.5399  63.0660 0013785 356.6663   3.3479  1.86230846 93218"}, {"name": "BEIDOU-2 G6 (C02)", "line1": "1 38953U 12059A   26163.85175780 -.00000165  00000+0  00000+0 0  9995", "line2": "2 38953   4.4090  73.5707 0009723 324.5872 253.6771  1.00273022 49863"}, {"name": "BEIDOU-3S IGSO-1S (C31)", "line1": "1 40549U 15019A   26163.85297113 -.00000181  00000+0  00000+0 0  9991", "line2": "2 40549  49.2042 295.5153 0038892 190.7643 173.7838  1.00251378 41037"}, {"name": "BEIDOU-3S M2S (C58)", "line1": "1 40748U 15037A   26162.95383127 -.00000067  00000+0  00000+0 0  9996", "line2": "2 40748  54.8763 302.2271 0008108 260.4209  99.4710  1.86232251 74028"}, {"name": "BEIDOU-3S M1S (C57)", "line1": "1 40749U 15037B   26163.16187506 -.00000068  00000+0  00000+0 0  9995", "line2": "2 40749  54.8722 302.2071 0003531  61.3308 298.6879  1.86254753 74036"}, {"name": "BEIDOU-3S IGSO-2S (C56)", "line1": "1 40938U 15053A   26163.73775098 -.00000142  00000+0  00000+0 0  9998", "line2": "2 40938  49.2285 258.8369 0065649 191.9763 171.2496  1.00260465 39313"}, {"name": "BEIDOU-2 IGSO-6 (C13)", "line1": "1 41434U 16021A   26162.98515472 -.00000157  00000+0  00000+0 0  9996", "line2": "2 41434  60.2181  38.0924 0057076 231.5598  78.5171  1.00260204 37420"}, {"name": "BEIDOU-2 G7 (C03)", "line1": "1 41586U 16037A   26163.85695782 -.00000340  00000+0  00000+0 0  9995", "line2": "2 41586   1.7078  69.2862 0006892   3.7686 247.1071  1.00266127  6842"}, {"name": "BEIDOU-3 M1 (C19)", "line1": "1 43001U 17069A   26161.15259502 -.00000050  00000+0  00000+0 0  9990", "line2": "2 43001  56.6854  63.3171 0010600 324.5878  35.3649  1.86231422 58472"}, {"name": "BEIDOU-3 M2 (C20)", "line1": "1 43002U 17069B   26162.16523728 -.00000053  00000+0  00000+0 0  9990", "line2": "2 43002  56.6856  63.3198 0009248 349.7918  10.2118  1.86230927 58487"}, {"name": "BEIDOU-3 M7 (C27)", "line1": "1 43107U 18003A   26162.98090701 -.00000068  00000+0  00000+0 0  9991", "line2": "2 43107  54.3332 302.4971 0004916  92.5162 267.5239  1.86228264 57250"}, {"name": "BEIDOU-3 M8 (C28)", "line1": "1 43108U 18003B   26162.92575939 -.00000068  00000+0  00000+0 0  9997", "line2": "2 43108  54.3258 302.4809 0002464 263.1764  96.7794  1.86231100 57260"}, {"name": "BEIDOU-3 M4 (C22)", "line1": "1 43207U 18018A   26160.14697391 -.00000046  00000+0  00000+0 0  9998", "line2": "2 43207  56.6431  63.4146 0007688  17.0743 342.9760  1.86231351 56594"}, {"name": "BEIDOU-3 M3 (C21)", "line1": "1 43208U 18018B   26162.89822228 -.00000055  00000+0  00000+0 0  9992", "line2": "2 43208  56.6458  63.3277 0008787 340.0142  19.9742  1.86231163 56649"}, {"name": "BEIDOU-3 M9 (C29)", "line1": "1 43245U 18029A   26163.65297359 -.00000068  00000+0  00000+0 0  9995", "line2": "2 43245  54.1986 300.1083 0000894 146.7723 213.2166  1.86228237 55818"}, {"name": "BEIDOU-3 M10 (C30)", "line1": "1 43246U 18029B   26163.58735602 -.00000068  00000+0  00000+0 0  9996", "line2": "2 43246  54.1962 300.1366 0003922  38.9682 321.0434  1.86229334 55790"}, {"name": "BEIDOU-2 IGSO-7 (C16)", "line1": "1 43539U 18057A   26162.92990737  .00000035  00000+0  00000+0 0  9994", "line2": "2 43539  55.1941 163.1041 0104883 237.9036 304.3892  1.00252608 29072"}, {"name": "BEIDOU-3 M5 (C23)", "line1": "1 43581U 18062A   26162.73757619  .00000127  00000+0  00000+0 0  9998", "line2": "2 43581  54.0854 182.4894 0005552 288.4349  71.5686  1.86228563 53530"}, {"name": "BEIDOU-3 M6 (C24)", "line1": "1 43582U 18062B   26162.60102209  .00000128  00000+0  00000+0 0  9995", "line2": "2 43582  54.0847 182.4833 0004807   9.7323 350.3409  1.86227777 53531"}, {"name": "BEIDOU-3 M12 (C26)", "line1": "1 43602U 18067A   26163.07638034  .00000126  00000+0  00000+0 0  9993", "line2": "2 43602  54.1800 181.2138 0007702  30.1537 329.9521  1.86227891 53029"}, {"name": "BEIDOU-3 M11 (C25)", "line1": "1 43603U 18067B   26163.74839059  .00000121  00000+0  00000+0 0  9993", "line2": "2 43603  54.1775 181.1545 0004426  13.3821 346.6892  1.86227237 53066"}, {"name": "BEIDOU-3 M13 (C32)", "line1": "1 43622U 18072A   26162.09235569 -.00000054  00000+0  00000+0 0  9999", "line2": "2 43622  56.6193  62.8611 0007461 327.3083  32.6685  1.86231513 52543"}, {"name": "BEIDOU-3 M14 (C33)", "line1": "1 43623U 18072B   26161.95779228 -.00000053  00000+0  00000+0 0  9998", "line2": "2 43623  56.6207  62.8602 0006161 357.5003   2.5196  1.86231499 52538"}, {"name": "BEIDOU-3 M16 (C35)", "line1": "1 43647U 18078A   26163.18711029 -.00000067  00000+0  00000+0 0  9997", "line2": "2 43647  54.0948 300.1614 0007259  40.8592 319.1792  1.86232190 52069"}, {"name": "BEIDOU-3 M15 (C34)", "line1": "1 43648U 18078B   26160.09472693 -.00000060  00000+0  00000+0 0  9999", "line2": "2 43648  54.0936 300.2703 0004330  57.2099 302.8231  1.86232356 52025"}, {"name": "BEIDOU-3 G1 (C59)", "line1": "1 43683U 18085A   26163.79550058 -.00000096  00000+0  00000+0 0  9997", "line2": "2 43683   2.8558  97.5111 0008184 348.6574 261.3042  1.00270772 28011"}, {"name": "BEIDOU-3 M17 (C36)", "line1": "1 43706U 18093A   26161.46407593  .00000127  00000+0  00000+0 0  9993", "line2": "2 43706  54.1687 182.5246 0010075 291.4418 158.4113  1.86228347 51418"}, {"name": "BEIDOU-3 M18 (C37)", "line1": "1 43707U 18093B   26162.26727249  .00000129  00000+0  00000+0 0  9998", "line2": "2 43707  54.1696 182.4894 0007903 320.4765  39.5298  1.86226379 51428"}, {"name": "BEIDOU-3 IGSO-1 (C38)", "line1": "1 44204U 19023A   26157.95428288 -.00000215  00000+0  00000+0 0  9993", "line2": "2 44204  58.6799  37.7569 0025434 225.6649  92.8731  1.00294886  7105"}, {"name": "BEIDOU-2 G8 (C01)", "line1": "1 44231U 19027A   26163.79246722 -.00000234  00000+0  00000+0 0  9998", "line2": "2 44231   1.6455  74.5045 0010279 282.7147 333.7307  1.00272423 26030"}, {"name": "BEIDOU-3 IGSO-2 (C39)", "line1": "1 44337U 19035A   26162.98574688 -.00000041  00000+0  00000+0 0  9995", "line2": "2 44337  55.2458 158.9084 0039925 216.2500 359.8397  1.00267954 25613"}, {"name": "BEIDOU-3 M24 (C46)", "line1": "1 44542U 19061A   26162.33598668  .00000129  00000+0  00000+0 0  9991", "line2": "2 44542  54.3962 182.9254 0008267 358.9131   1.1499  1.86229258 45684"}, {"name": "BEIDOU-3 M23 (C45)", "line1": "1 44543U 19061B   26162.73454990  .00000128  00000+0  00000+0 0  9994", "line2": "2 44543  54.3946 182.8802 0005596 337.8055 201.1034  1.86227372 45691"}, {"name": "BEIDOU-3 IGSO-3 (C40)", "line1": "1 44709U 19073A   26136.81046384 -.00000217  00000+0  00000+0 0  9995", "line2": "2 44709  54.8566 281.2355 0042953 189.4588 170.3676  1.00246251 24144"}, {"name": "BEIDOU-3 M22 (C44)", "line1": "1 44793U 19078A   26163.78655859 -.00000068  00000+0  00000+0 0  9996", "line2": "2 44793  53.9404 299.9835 0006463  50.1011 309.9391  1.86227405 44564"}, {"name": "BEIDOU-3 M21 (C43)", "line1": "1 44794U 19078B   26162.85257053 -.00000067  00000+0  00000+0 0  9997", "line2": "2 44794  53.9144 299.9773 0004338  47.8578 312.1638  1.86227891 44555"}, {"name": "BEIDOU-3 M19 (C41)", "line1": "1 44864U 19090A   26163.79821793 -.00000056  00000+0  00000+0 0  9999", "line2": "2 44864  56.5546  62.9362 0017895 297.9267 173.3886  1.86231512 44158"}, {"name": "BEIDOU-3 M20 (C42)", "line1": "1 44865U 19090B   26161.09867501 -.00000050  00000+0  00000+0 0  9992", "line2": "2 44865  56.5539  63.0605 0015925 311.2740 239.7297  1.86231666 44086"}, {"name": "BEIDOU-3 G2 (C60)", "line1": "1 45344U 20017A   26163.85097779 -.00000129  00000+0  00000+0 0  9991", "line2": "2 45344   2.8541  47.2727 0002204  32.2882 208.0377  1.00272699 23215"}, {"name": "BEIDOU-3 G3 (C61)", "line1": "1 45807U 20040A   26163.85704449 -.00000341  00000+0  00000+0 0  9996", "line2": "2 45807   2.4351  67.4425 0002522 336.8087 276.0267  1.00269061 22026"}, {"name": "BEIDOU-3 G4 (C62)", "line1": "1 56564U 23066A   26163.79160056 -.00000270  00000+0  00000+0 0  9993", "line2": "2 56564   0.4922 330.2704 0003574 191.3293 164.4688  1.00257341 11340"}, {"name": "BEIDOU-3 M28 (C50)", "line1": "1 58654U 23207A   26162.39272009 -.00000056  00000+0  00000+0 0  9991", "line2": "2 58654  55.7478  62.4986 0003416 345.3912  14.6217  1.86229663 16733"}, {"name": "BEIDOU-3 M26 (C48)", "line1": "1 58655U 23207B   26161.11630189 -.00000052  00000+0  00000+0 0  9994", "line2": "2 58655  55.7488  62.5282 0003349 318.7202  41.2779  1.86229681 16690"}, {"name": "BEIDOU-3 M25 (C47)", "line1": "1 61186U 24168B   26163.83690193 -.00000069  00000+0  00000+0 0  9994", "line2": "2 61186  54.4778 302.3939 0003000 301.8949 199.4569  1.86229830 11706"}, {"name": "BEIDOU-3 M27 (C49)", "line1": "1 61187U 24168C   26163.15596426 -.00000068  00000+0  00000+0 0  9993", "line2": "2 61187  54.4738 302.4006 0001621  49.9773 129.8686  1.86229941  9168"}]